[{"OBJECT_NAME":"HULIANWANG DIGUI-97","OBJECT_ID":"2025-258B","EPOCH":"2026-03-15T06:21:13.475520","MEAN_MOTION":13.29333479,"ECCENTRICITY":5.491e-5,"INCLINATION":50,"RA_OF_ASC_NODE":272.7498,"ARG_OF_PERICENTER":132.7347,"MEAN_ANOMALY":227.3571,"EPHEMERIS_TYPE":0,"CLASSIFICATION_TYPE":"U","NORAD_CAT_ID":66413,"ELEMENT_SET_NO":999,"REV_AT_EPOCH":1723,"BSTAR":0.00011656669,"MEAN_MOTION_DOT":-7.0e-7,"MEAN_MOTION_DDOT":0},{"OBJECT_NAME":"HULIANWANG DIGUI-98","OBJECT_ID":"2025-258C","EPOCH":"2026-03-15T06:09:08.614080","MEAN_MOTION":13.29335106,"ECCENTRICITY":5.998e-5,"INCLINATION":50.0038,"RA_OF_ASC_NODE":272.751,"ARG_OF_PERICENTER":140.596,"MEAN_ANOMALY":219.4956,"EPHEMERIS_TYPE":0,"CLASSIFICATION_TYPE":"U","NORAD_CAT_ID":66414,"ELEMENT_SET_NO":999,"REV_AT_EPOCH":1723,"BSTAR":0.00012160956,"MEAN_MOTION_DOT":-6.8e-7,"MEAN_MOTION_DDOT":0},{"OBJECT_NAME":"HULIANWANG DIGUI-99","OBJECT_ID":"2025-258D","EPOCH":"2026-03-15T07:09:21.167424","MEAN_MOTION":13.29332508,"ECCENTRICITY":4.69e-5,"INCLINATION":50.0036,"RA_OF_ASC_NODE":272.3017,"ARG_OF_PERICENTER":126.0415,"MEAN_ANOMALY":234.0501,"EPHEMERIS_TYPE":0,"CLASSIFICATION_TYPE":"U","NORAD_CAT_ID":66415,"ELEMENT_SET_NO":999,"REV_AT_EPOCH":1723,"BSTAR":0.00012528427,"MEAN_MOTION_DOT":-6.6e-7,"MEAN_MOTION_DDOT":0},{"OBJECT_NAME":"HULIANWANG DIGUI-100","OBJECT_ID":"2025-258E","EPOCH":"2026-03-15T05:57:07.041888","MEAN_MOTION":13.29335535,"ECCENTRICITY":4.572e-5,"INCLINATION":50.0039,"RA_OF_ASC_NODE":272.71,"ARG_OF_PERICENTER":125.4854,"MEAN_ANOMALY":234.6061,"EPHEMERIS_TYPE":0,"CLASSIFICATION_TYPE":"U","NORAD_CAT_ID":66416,"ELEMENT_SET_NO":999,"REV_AT_EPOCH":1724,"BSTAR":0.0001132192,"MEAN_MOTION_DOT":-7.2e-7,"MEAN_MOTION_DDOT":0},{"OBJECT_NAME":"HULIANWANG DIGUI-101","OBJECT_ID":"2025-258F","EPOCH":"2026-03-15T05:45:07.439616","MEAN_MOTION":13.29333618,"ECCENTRICITY":4.763e-5,"INCLINATION":49.9989,"RA_OF_ASC_NODE":272.6042,"ARG_OF_PERICENTER":122.2277,"MEAN_ANOMALY":237.8641,"EPHEMERIS_TYPE":0,"CLASSIFICATION_TYPE":"U","NORAD_CAT_ID":66417,"ELEMENT_SET_NO":999,"REV_AT_EPOCH":1724,"BSTAR":0.00010322306,"MEAN_MOTION_DOT":-7.6e-7,"MEAN_MOTION_DDOT":0},{"OBJECT_NAME":"HULIANWANG DIGUI-102","OBJECT_ID":"2025-258G","EPOCH":"2026-03-15T06:57:13.883328","MEAN_MOTION":13.29335556,"ECCENTRICITY":4.942e-5,"INCLINATION":50.0003,"RA_OF_ASC_NODE":272.2158,"ARG_OF_PERICENTER":135.6797,"MEAN_ANOMALY":224.4115,"EPHEMERIS_TYPE":0,"CLASSIFICATION_TYPE":"U","NORAD_CAT_ID":66418,"ELEMENT_SET_NO":999,"REV_AT_EPOCH":1724,"BSTAR":0.0001229135,"MEAN_MOTION_DOT":-6.7e-7,"MEAN_MOTION_DDOT":0},{"OBJECT_NAME":"HULIANWANG DIGUI-103","OBJECT_ID":"2025-258H","EPOCH":"2026-03-15T06:45:14.535936","MEAN_MOTION":13.29334649,"ECCENTRICITY":4.194e-5,"INCLINATION":49.9997,"RA_OF_ASC_NODE":272.1641,"ARG_OF_PERICENTER":123.4819,"MEAN_ANOMALY":236.6093,"EPHEMERIS_TYPE":0,"CLASSIFICATION_TYPE":"U","NORAD_CAT_ID":66419,"ELEMENT_SET_NO":999,"REV_AT_EPOCH":1724,"BSTAR":0.00012634014,"MEAN_MOTION_DOT":-6.5e-7,"MEAN_MOTION_DDOT":0},{"OBJECT_NAME":"HULIANWANG DIGUI-104","OBJECT_ID":"2025-258J","EPOCH":"2026-03-15T06:33:14.537088","MEAN_MOTION":13.29334009,"ECCENTRICITY":5.256e-5,"INCLINATION":50.0014,"RA_OF_ASC_NODE":272.1446,"ARG_OF_PERICENTER":139.167,"MEAN_ANOMALY":220.9242,"EPHEMERIS_TYPE":0,"CLASSIFICATION_TYPE":"U","NORAD_CAT_ID":66420,"ELEMENT_SET_NO":999,"REV_AT_EPOCH":1723,"BSTAR":0.00011702532,"MEAN_MOTION_DOT":-7.0e-7,"MEAN_MOTION_DDOT":0},{"OBJECT_NAME":"HULIANWANG DIGUI-105","OBJECT_ID":"2025-285A","EPOCH":"2026-03-15T06:38:53.268288","MEAN_MOTION":13.29331636,"ECCENTRICITY":2.497e-5,"INCLINATION":50.0039,"RA_OF_ASC_NODE":123.0249,"ARG_OF_PERICENTER":322.7173,"MEAN_ANOMALY":37.3682,"EPHEMERIS_TYPE":0,"CLASSIFICATION_TYPE":"U","NORAD_CAT_ID":66915,"ELEMENT_SET_NO":999,"REV_AT_EPOCH":1356,"BSTAR":0.00010869054,"MEAN_MOTION_DOT":-7.4e-7,"MEAN_MOTION_DDOT":0},{"OBJECT_NAME":"HULIANWANG DIGUI-106","OBJECT_ID":"2025-285B","EPOCH":"2026-03-12T15:17:23.017344","MEAN_MOTION":13.29152637,"ECCENTRICITY":0.00049191,"INCLINATION":50.0031,"RA_OF_ASC_NODE":132.4321,"ARG_OF_PERICENTER":57.5216,"MEAN_ANOMALY":302.6131,"EPHEMERIS_TYPE":0,"CLASSIFICATION_TYPE":"U","NORAD_CAT_ID":66916,"ELEMENT_SET_NO":999,"REV_AT_EPOCH":1321,"BSTAR":-1.4356008,"MEAN_MOTION_DOT":-0.0063632,"MEAN_MOTION_DDOT":0},{"OBJECT_NAME":"HULIANWANG DIGUI-107","OBJECT_ID":"2025-285C","EPOCH":"2026-03-15T06:14:50.476416","MEAN_MOTION":13.29331116,"ECCENTRICITY":2.108e-5,"INCLINATION":50.0015,"RA_OF_ASC_NODE":122.9185,"ARG_OF_PERICENTER":324.3955,"MEAN_ANOMALY":35.6903,"EPHEMERIS_TYPE":0,"CLASSIFICATION_TYPE":"U","NORAD_CAT_ID":66917,"ELEMENT_SET_NO":999,"REV_AT_EPOCH":1356,"BSTAR":0.00010388407,"MEAN_MOTION_DOT":-7.6e-7,"MEAN_MOTION_DDOT":0},{"OBJECT_NAME":"HULIANWANG DIGUI-108","OBJECT_ID":"2025-285D","EPOCH":"2026-03-15T06:02:47.762880","MEAN_MOTION":13.29331743,"ECCENTRICITY":2.032e-5,"INCLINATION":50.0036,"RA_OF_ASC_NODE":122.8935,"ARG_OF_PERICENTER":326.2719,"MEAN_ANOMALY":33.814,"EPHEMERIS_TYPE":0,"CLASSIFICATION_TYPE":"U","NORAD_CAT_ID":66918,"ELEMENT_SET_NO":999,"REV_AT_EPOCH":1356,"BSTAR":0.00010735058,"MEAN_MOTION_DOT":-7.4e-7,"MEAN_MOTION_DDOT":0},{"OBJECT_NAME":"HULIANWANG DIGUI-109","OBJECT_ID":"2025-285E","EPOCH":"2026-03-15T05:50:46.354848","MEAN_MOTION":13.29331611,"ECCENTRICITY":2.044e-5,"INCLINATION":50.0062,"RA_OF_ASC_NODE":122.8721,"ARG_OF_PERICENTER":323.0039,"MEAN_ANOMALY":37.0819,"EPHEMERIS_TYPE":0,"CLASSIFICATION_TYPE":"U","NORAD_CAT_ID":66919,"ELEMENT_SET_NO":999,"REV_AT_EPOCH":1357,"BSTAR":0.0001170804,"MEAN_MOTION_DOT":-7.0e-7,"MEAN_MOTION_DDOT":0},{"OBJECT_NAME":"HULIANWANG DIGUI-110","OBJECT_ID":"2025-285F","EPOCH":"2026-03-15T05:38:45.495456","MEAN_MOTION":13.29331133,"ECCENTRICITY":2.144e-5,"INCLINATION":50.0093,"RA_OF_ASC_NODE":122.8567,"ARG_OF_PERICENTER":320.3894,"MEAN_ANOMALY":39.6962,"EPHEMERIS_TYPE":0,"CLASSIFICATION_TYPE":"U","NORAD_CAT_ID":66920,"ELEMENT_SET_NO":999,"REV_AT_EPOCH":1356,"BSTAR":9.3495266e-5,"MEAN_MOTION_DOT":-8.1e-7,"MEAN_MOTION_DDOT":0},{"OBJECT_NAME":"HULIANWANG DIGUI-111","OBJECT_ID":"2025-285G","EPOCH":"2026-03-15T05:26:43.711584","MEAN_MOTION":13.2933113,"ECCENTRICITY":2.051e-5,"INCLINATION":50.011,"RA_OF_ASC_NODE":122.8279,"ARG_OF_PERICENTER":324.3302,"MEAN_ANOMALY":35.7557,"EPHEMERIS_TYPE":0,"CLASSIFICATION_TYPE":"U","NORAD_CAT_ID":66921,"ELEMENT_SET_NO":999,"REV_AT_EPOCH":1356,"BSTAR":9.5787721e-5,"MEAN_MOTION_DOT":-8.0e-7,"MEAN_MOTION_DDOT":0},{"OBJECT_NAME":"HULIANWANG DIGUI-112","OBJECT_ID":"2025-285H","EPOCH":"2026-03-15T07:02:56.988096","MEAN_MOTION":13.29331799,"ECCENTRICITY":2.124e-5,"INCLINATION":50.0073,"RA_OF_ASC_NODE":122.4843,"ARG_OF_PERICENTER":324.8193,"MEAN_ANOMALY":35.2666,"EPHEMERIS_TYPE":0,"CLASSIFICATION_TYPE":"U","NORAD_CAT_ID":66922,"ELEMENT_SET_NO":999,"REV_AT_EPOCH":1357,"BSTAR":0.00013237929,"MEAN_MOTION_DOT":-6.3e-7,"MEAN_MOTION_DDOT":0}]
