HULIANWANG DIGUI-97     
1 66413U 25258B   26074.26473930 -.00000070  00000+0  11657-3 0  9995
2 66413  50.0000 272.7498 0000549 132.7347 227.3571 13.29333479 17235
HULIANWANG DIGUI-98     
1 66414U 25258C   26074.25634970 -.00000068  00000+0  12161-3 0  9996
2 66414  50.0038 272.7510 0000599 140.5960 219.4956 13.29335106 17233
HULIANWANG DIGUI-99     
1 66415U 25258D   26074.29816166 -.00000066  00000+0  12528-3 0  9995
2 66415  50.0036 272.3017 0000469 126.0415 234.0501 13.29332508 17232
HULIANWANG DIGUI-100    
1 66416U 25258E   26074.24799817 -.00000072  00000+0  11322-3 0  9992
2 66416  50.0039 272.7100 0000457 125.4854 234.6061 13.29335535 17241
HULIANWANG DIGUI-101    
1 66417U 25258F   26074.23966944 -.00000076  00000+0  10322-3 0  9992
2 66417  49.9989 272.6042 0000476 122.2277 237.8641 13.29333618 17241
HULIANWANG DIGUI-102    
1 66418U 25258G   26074.28974402 -.00000067  00000+0  12291-3 0  9993
2 66418  50.0003 272.2158 0000494 135.6797 224.4115 13.29335556 17242
HULIANWANG DIGUI-103    
1 66419U 25258H   26074.28141824 -.00000065  00000+0  12634-3 0  9997
2 66419  49.9997 272.1641 0000419 123.4819 236.6093 13.29334649 17247
HULIANWANG DIGUI-104    
1 66420U 25258J   26074.27308492 -.00000070  00000+0  11703-3 0  9996
2 66420  50.0014 272.1446 0000525 139.1670 220.9242 13.29334009 17233
HULIANWANG DIGUI-105    
1 66915U 25285A   26074.27700542 -.00000074  00000+0  10869-3 0  9993
2 66915  50.0039 123.0249 0000249 322.7173  37.3682 13.29331636 13568
HULIANWANG DIGUI-106    
1 66916U 25285B   26071.63707196 -.00636320  00000+0 -14356+1 0  9995
2 66916  50.0031 132.4321 0004919  57.5216 302.6131 13.29152637 13216
HULIANWANG DIGUI-107    
1 66917U 25285C   26074.26030644 -.00000076  00000+0  10388-3 0  9991
2 66917  50.0015 122.9185 0000210 324.3955  35.6903 13.29331116 13565
HULIANWANG DIGUI-108    
1 66918U 25285D   26074.25194170 -.00000074  00000+0  10735-3 0  9990
2 66918  50.0036 122.8935 0000203 326.2719  33.8140 13.29331743 13561
HULIANWANG DIGUI-109    
1 66919U 25285E   26074.24359207 -.00000070  00000+0  11708-3 0  9991
2 66919  50.0062 122.8721 0000204 323.0039  37.0819 13.29331611 13579
HULIANWANG DIGUI-110    
1 66920U 25285F   26074.23524879 -.00000081  00000+0  93495-4 0  9997
2 66920  50.0093 122.8567 0000214 320.3894  39.6962 13.29331133 13568
HULIANWANG DIGUI-111    
1 66921U 25285G   26074.22689481 -.00000080  00000+0  95788-4 0  9994
2 66921  50.0110 122.8279 0000205 324.3302  35.7557 13.29331130 13561
HULIANWANG DIGUI-112    
1 66922U 25285H   26074.29371514 -.00000063  00000+0  13238-3 0  9997
2 66922  50.0073 122.4843 0000212 324.8193  35.2666 13.29331799 13572
